[{"OBJECT_NAME":"IRIDIUM 173","OBJECT_ID":"2019-002D","EPOCH":"2026-03-09T23:25:14.922624","MEAN_MOTION":14.34217176,"ECCENTRICITY":0.00020878,"INCLINATION":86.3979,"RA_OF_ASC_NODE":35.0129,"ARG_OF_PERICENTER":83.8645,"MEAN_ANOMALY":276.2788,"EPHEMERIS_TYPE":0,"CLASSIFICATION_TYPE":"U","NORAD_CAT_ID":43925,"ELEMENT_SET_NO":999,"REV_AT_EPOCH":37473,"BSTAR":2.1469625e-5,"MEAN_MOTION_DOT":8.0e-7,"MEAN_MOTION_DDOT":0},{"OBJECT_NAME":"COSMOS 1275 DEB","OBJECT_ID":"1981-053FU","EPOCH":"2026-03-09T23:44:18.874176","MEAN_MOTION":14.35973966,"ECCENTRICITY":0.00109938,"INCLINATION":82.8445,"RA_OF_ASC_NODE":53.2952,"ARG_OF_PERICENTER":224.3337,"MEAN_ANOMALY":190.2183,"EPHEMERIS_TYPE":0,"CLASSIFICATION_TYPE":"U","NORAD_CAT_ID":13472,"ELEMENT_SET_NO":999,"REV_AT_EPOCH":23514,"BSTAR":0.0023172077,"MEAN_MOTION_DOT":6.75e-5,"MEAN_MOTION_DDOT":0}]
